#dP2018 11  9  0  0  0.00000000      96 __u+U IGS08 FIT  IAC
## 2026 432000.00000000   900.00000000 58431 0.0000000000000
+   92   C01C02C03C04C05C06C07C08C09C10C11C12C13C14E01E02E03
+        E04E05E07E08E09E11E12E14E18E19E21E24E25E26E27E30E31
+        G01G02G03G05G06G07G08G09G10G11G12G13G14G15G16G17G18
+        G19G20G21G22G23G24G25G26G27G28G29G30G31G32J01J02J03
+        J07R01R02R03R04R05R07R08R09R10R11R13R14R15R16R17R18
+        R19R20R21R22R23R24R26  0  0  0  0  0  0  0  0  0  0
++        12 13 13 12 12  8  8  8  8  8  8  7  7  7  7  7  7
++         7  7  7  7  7  7  7  7  7  7  7  7  7  7  7  7  6
++         3  3  3  3  3  3  3  3  3  3  3  3  3  3  3  3  3
++         3  3  3  3  3  3  3  3  3  3  3  3  3  3 10 11 11
++        17  5  5  5  5  5  5  5  5  5  5  5  5  5  5  5  5
++         6  5  5  5  5  5  7  0  0  0  0  0  0  0  0  0  0
%c M  cc GPS ccc cccc cccc cccc cccc ccccc ccccc ccccc ccccc
%c cc cc ccc ccc cccc cccc cccc cccc ccccc ccccc ccccc ccccc
%f  1.2500000  1.025000000  0.00000000000  0.000000000000000
%f  0.0000000  0.000000000  0.00000000000  0.000000000000000
%i    0    0    0    0      0      0      0      0         0
%i    0    0    0    0      0      0      0      0         0
/* INFORMATION & ANALYSIS CENTER (IAC)            FINAL DATA
/* S/V CLOCKS ARE ALIGNED TO GPS & GLONASS TIME RESPECTIVELY
/* USING THE BROADCAST EPHEMERIS                            
/* PCV:IGS14_2022 OL/AL:FES2004  NONE     YN ORB:CoN CLK:CoN
*  2018 11 09  5 45  0.00000000
PC01 -32332.608788  27042.871243  -1077.679982   -136.365875
PC02   4481.378861  41902.143062    699.429029    -86.129082
PC03 -14681.394011  39554.988105   -447.886441    -82.610105
PC04 -39634.310685  14356.742906   -547.033335    -18.995920
PC05  21917.812537  36018.785416    981.358592    153.504425
PC06  -8041.890082  27469.362099  31345.722581     31.329920
PC07 -23074.473830  24038.085664 -25958.882982   -133.899634
PC08 -18581.911875  37469.504861  -3941.974786     26.005412
PC09   6739.227346  36534.272064  20416.503599    268.824083
PC10  -6186.733143  26262.676705 -32319.284270   -223.158245
PC11  14124.447465  15879.266750  18102.985874    -33.733996
PC12   4925.550097  27369.079418   1606.969194    200.364589
PC13  -8159.881543  39673.439659  11208.349828   -367.776229
PC14  23815.289288  13548.367127   5483.581569    581.938402
PE01 -27716.722851   1164.751434  10340.158272   -474.002716
PE02  27731.302425  -1209.918530 -10281.981371     34.435732
PE03  24288.314215   9202.589886 -14188.429431    -97.658955
PE04 -15116.448001   8986.000965  23808.822758   -154.885452
PE05  19290.508264  22123.096024   3810.142243    162.633048
PE07  -3026.447678 -22053.815725 -19513.669175    -71.979956
PE08  14888.207639  -9076.053646 -23920.119742   6466.487730
PE09   3270.732544  21924.114221  19609.225634   6623.181949
PE11  -4961.494978  29076.691792   2510.663941   5706.185107
PE12 -15409.445269  19664.088259 -15877.530352   5457.397772
PE14  -6783.637837 -24853.115454   2974.128725   6492.239325
PE18  -3026.274864  27155.983272 -14595.218847   5770.057695
PE19 -24443.002355 -10888.962178  12650.310104    -10.776088
PE21 -13749.919998 -11887.696447  23369.212012   -503.592843
PE24  -7512.573704  17674.837242 -22521.297885   6398.748207
PE25  13710.543747  11897.404209 -23366.541510   1988.744903
PE26  -8064.251269 -21339.992277 -18866.496649   5269.455004
PE27   8146.938243 -17713.541524  22282.179533    594.170609
PE30  24994.365720 -13286.988154   8666.514815   5365.078424
PE31 -25258.531022  13134.085861  -8105.602780    988.456948
PG01  13291.612342 -22544.272723  -3613.342893   -111.752662
PG02 -18915.554595   9876.418316 -15094.666978    -53.531326
PG03   9433.938124 -13637.274289 -20771.479439    158.364920
PG05 -25172.745013   3749.843268   7829.311233     -0.323948
PG06 -14331.124004  -5331.107086 -21687.676932    336.551432
PG07   1157.887043 -20878.788421  16338.940670     91.807407
PG08  10474.723977 -11998.112234  21274.957793   -121.531296
PG09  -5994.467363 -24857.973972  -7218.986753    494.027038
PG10  20232.594547  11225.924234  13242.628472    166.322899
PG11   9440.954368 -24048.028612   6081.042239   -701.764066
PG12 -14068.731701  10998.134391 -19793.159797    293.529183
PG13 -14541.949588   3714.118035  21799.566936    -84.972383
PG14  16620.886598  12663.829883 -16196.379244    -95.986310
PG15  -7658.128955  15997.820060  19412.414473   -340.405541
PG16  25867.982436    201.519394   6776.130814     -0.135369
PG17 -14212.357010 -20642.878698  -8569.397321    -33.806295
PG18  17239.229072 -19140.305356   5658.981782     77.352523
PG19 -16328.659669 -12139.333095 -17299.902514   -385.522751
PG20  11620.907560  14139.885777  19162.850975    518.449674
PG21   3278.361070  19598.774853  18454.719599   -307.464229
PG22  17136.193544 -11719.419993 -16315.719564   -569.103012
PG23   1486.205866 -21697.832194 -14655.726283   -206.672783
PG24 -15211.440374  21503.775143   1458.623718    -57.921094
PG25   -499.499827  15069.020884 -22053.642431   -674.103330
PG26  26067.975662   4384.404542  -3345.847805     33.990611
PG27  15611.337919   -551.775034  21437.489101    -15.616856
PG28 -17263.532352 -13687.635096  15411.678106    753.710095
PG29   3211.231175  24867.987242  -8774.081394    339.974418
PG30  -8387.375230 -13948.083353  20982.180363     -2.040262
PG31  16241.412502   2723.660533 -20900.894496     80.979926
PG32  16317.692251  18438.307056 -10046.830574   -363.850897
PJ01 -26565.520477  24207.475577  27111.159996   -276.878453
PJ02 -34740.365367  23013.485351  -1058.155000      0.670457
PJ03 -19431.425451  24206.125006 -23960.807540      0.750535
PJ07 -25388.854184  33658.581880     27.793642 999999.999999
PR01  21332.765254  13904.029568   1360.949730     34.695244
PR02  18741.319762   2340.089284 -17141.561376    338.622171
PR03   4768.640549  -9960.063841 -22960.443943    148.343135
PR04 -12435.074108 -16394.523587 -15055.161224    283.061482
PR05 -21757.466395 -13263.960626    895.367657     15.042101
PR07  -4273.521591  10281.708696  22977.654153    -51.187024
PR08  11794.785049  16369.484704  15655.280111     20.562563
PR09 -23250.427294   9970.490536   3553.471022     37.739814
PR10 -16535.404250  14867.341059 -12586.023390     35.329310
PR11    672.440003  11833.575072 -22570.890731    -46.499594
PR13  23077.496673  -9945.108005  -4373.850444    -16.626944
PR14  16337.948456 -15077.779396  12512.012729     32.811357
PR15   4266.475917 -13258.210047  21408.201124    -18.929348
PR16 -16044.123656  -2060.498360  19668.235386    105.942296
PR17   6388.756590 -21853.049589  11557.231192    178.890208
PR18  -1187.058285 -24893.427090  -5303.128606     27.037536
PR19  -7777.183713 -14519.420415 -19480.569646    -61.367967
PR20 -10538.285441   6026.797696 -22432.745410   -358.445901
PR21  -6158.668191  22081.842435 -11149.274213    -13.493397
PR22   2163.891320  24313.341495   7612.651366    -64.729022
PR23   9257.340907   9945.899715  21579.905866    189.568162
PR24  10359.090200  -7595.392259  22012.931100   -173.545484
PR26 -10543.609562   4368.148593 -22796.662502      3.478329
EOF
